{
    "links": {
        "self": "http://www.neowsapp.com/rest/v1/neo/3785788?api_key=iIulBulltgU6a56xZRHN4H3l9WmuAYTsLGpBGhQ2"
    },
    "id": "3785788",
    "neo_reference_id": "3785788",
    "name": "(2017 TE5)",
    "designation": "2017 TE5",
    "nasa_jpl_url": "http://ssd.jpl.nasa.gov/sbdb.cgi?sstr=3785788",
    "absolute_magnitude_h": 26.0,
    "estimated_diameter": {
        "kilometers": {
            "estimated_diameter_min": 0.0167708462,
            "estimated_diameter_max": 0.0375007522
        },
        "meters": {
            "estimated_diameter_min": 16.7708462163,
            "estimated_diameter_max": 37.5007521798
        },
        "miles": {
            "estimated_diameter_min": 0.0104209175,
            "estimated_diameter_max": 0.0233018799
        },
        "feet": {
            "estimated_diameter_min": 55.0224631002,
            "estimated_diameter_max": 123.0339677816
        }
    },
    "is_potentially_hazardous_asteroid": false,
    "close_approach_data": [
        {
            "close_approach_date": "1990-09-12",
            "close_approach_date_full": "1990-Sep-12 21:24",
            "epoch_date_close_approach": 653174640000,
            "relative_velocity": {
                "kilometers_per_second": "24.0488987924",
                "kilometers_per_hour": "86576.0356526324",
                "miles_per_hour": "53794.9817087149"
            },
            "miss_distance": {
                "astronomical": "0.4805207715",
                "lunar": "186.9225801135",
                "kilometers": "71884883.907156705",
                "miles": "44667195.614524329"
            },
            "orbiting_body": "Earth"
        },
        {
            "close_approach_date": "2013-01-18",
            "close_approach_date_full": "2013-Jan-18 21:03",
            "epoch_date_close_approach": 1358542980000,
            "relative_velocity": {
                "kilometers_per_second": "14.7520939203",
                "kilometers_per_hour": "53107.5381130386",
                "miles_per_hour": "32998.9588902933"
            },
            "miss_distance": {
                "astronomical": "0.2551397504",
                "lunar": "99.2493629056",
                "kilometers": "38168363.212171648",
                "miles": "23716721.1410708224"
            },
            "orbiting_body": "Earth"
        },
        {
            "close_approach_date": "2017-10-17",
            "close_approach_date_full": "2017-Oct-17 11:09",
            "epoch_date_close_approach": 1508238540000,
            "relative_velocity": {
                "kilometers_per_second": "10.9228583607",
                "kilometers_per_hour": "39322.2900986849",
                "miles_per_hour": "24433.3418671523"
            },
            "miss_distance": {
                "astronomical": "0.0034349058",
                "lunar": "1.3361783562",
                "kilometers": "513854.591330646",
                "miles": "319294.4371730748"
            },
            "orbiting_body": "Earth"
        },
        {
            "close_approach_date": "2017-10-17",
            "close_approach_date_full": "2017-Oct-17 18:58",
            "epoch_date_close_approach": 1508266680000,
            "relative_velocity": {
                "kilometers_per_second": "10.986078699",
                "kilometers_per_hour": "39549.8833162484",
                "miles_per_hour": "24574.7594416989"
            },
            "miss_distance": {
                "astronomical": "0.0047534313",
                "lunar": "1.8490847757",
                "kilometers": "711103.197671331",
                "miles": "441859.0377571278"
            },
            "orbiting_body": "Moon"
        },
        {
            "close_approach_date": "2044-09-12",
            "close_approach_date_full": "2044-Sep-12 17:12",
            "epoch_date_close_approach": 2357313120000,
            "relative_velocity": {
                "kilometers_per_second": "24.2667273539",
                "kilometers_per_hour": "87360.2184740281",
                "miles_per_hour": "54282.2424179315"
            },
            "miss_distance": {
                "astronomical": "0.4866830552",
                "lunar": "189.3197084728",
                "kilometers": "72806748.423012424",
                "miles": "45240015.6626584912"
            },
            "orbiting_body": "Earth"
        }
    ],
    "orbital_data": {
        "orbit_id": "4",
        "orbit_determination_date": "2017-10-19 06:18:51",
        "first_observation_date": "2017-10-14",
        "last_observation_date": "2017-10-17",
        "data_arc_in_days": 3,
        "observations_used": 83,
        "orbit_uncertainty": "6",
        "minimum_orbit_intersection": ".00462911",
        "jupiter_tisserand_invariant": "3.877",
        "epoch_osculation": "2459000.5",
        "eccentricity": ".49381220602894",
        "semi_major_axis": "1.815853634045524",
        "inclination": "10.09074203459895",
        "ascending_node_longitude": "23.17638852556715",
        "orbital_period": "893.7574730681926",
        "perihelion_distance": ".9191629451918364",
        "perihelion_argument": "41.79467294664657",
        "aphelion_distance": "2.712544322899213",
        "perihelion_time": "2458970.076691673179",
        "mean_anomaly": "12.25432102968267",
        "mean_motion": ".4027938348466626",
        "equinox": "J2000",
        "orbit_class": {
            "orbit_class_type": "APO",
            "orbit_class_description": "Near-Earth asteroid orbits which cross the Earth’s orbit similar to that of 1862 Apollo",
            "orbit_class_range": "a (semi-major axis) > 1.0 AU; q (perihelion) < 1.017 AU"
        }
    },
    "is_sentry_object": false
}